[
    {
        "Altitude(m)": 703817.1624054413,
        "Argument of Periapsis(deg)": 0.009112096949301655,
        "Eccentricity": 0.0,
        "Inclination(deg)": 45.0,
        "Latitude(deg)": 27.038191087796513,
        "Longitude(deg)": -1.1185993285561044,
        "Mean Anomaly(deg)": -219.86432668201536,
        "RAAN(deg)": 309.9913984468334,
        "Satellite Name": "Constellation 1 1372",
        "Satellite Number": 1372,
        "Semi-Major Axis(m)": 7083131.272910544,
        "Time(s)": 152
    },
    {
        "Altitude(m)": 703811.9171825338,
        "Argument of Periapsis(deg)": 0.009172044955547059,
        "Eccentricity": 0.0,
        "Inclination(deg)": 45.0,
        "Latitude(deg)": 27.001007417899615,
        "Longitude(deg)": -1.068760027994997,
        "Mean Anomaly(deg)": -219.8036255417654,
        "RAAN(deg)": 309.99134185766786,
        "Satellite Name": "Constellation 1 1372",
        "Satellite Number": 1372,
        "Semi-Major Axis(m)": 7083131.272910544,
        "Time(s)": 153
    },
    {
        "Altitude(m)": 703806.6794888482,
        "Argument of Periapsis(deg)": 0.009231992961792466,
        "Eccentricity": 0.0,
        "Inclination(deg)": 45.0,
        "Latitude(deg)": 26.963802918750428,
        "Longitude(deg)": -1.018956200048724,
        "Mean Anomaly(deg)": -219.74292440151555,
        "RAAN(deg)": 309.9912852685023,
        "Satellite Name": "Constellation 1 1372",
        "Satellite Number": 1372,
        "Semi-Major Axis(m)": 7083131.272910544,
        "Time(s)": 154
    },
    {
        "Altitude(m)": 703801.4493626367,
        "Argument of Periapsis(deg)": 0.009291940968037872,
        "Eccentricity": 0.0,
        "Inclination(deg)": 45.0,
        "Latitude(deg)": 26.926577636873095,
        "Longitude(deg)": -0.9691877842670509,
        "Mean Anomaly(deg)": -219.68222326126562,
        "RAAN(deg)": 309.99122867933676,
        "Satellite Name": "Constellation 1 1372",
        "Satellite Number": 1372,
        "Semi-Major Axis(m)": 7083131.272910544,
        "Time(s)": 155
    },
    {
        "Altitude(m)": 703796.2268421495,
        "Argument of Periapsis(deg)": 0.009351888974283276,
        "Eccentricity": 0.0,
        "Inclination(deg)": 45.0,
        "Latitude(deg)": 26.889331618723787,
        "Longitude(deg)": -0.9194548882840303,
        "Mean Anomaly(deg)": -219.62152212101574,
        "RAAN(deg)": 309.9911720901712,
        "Satellite Name": "Constellation 1 1372",
        "Satellite Number": 1372,
        "Semi-Major Axis(m)": 7083131.272910544,
        "Time(s)": 156
    },
    {
        "Altitude(m)": 703791.011965599,
        "Argument of Periapsis(deg)": 0.00941183698052868,
        "Eccentricity": 0.0,
        "Inclination(deg)": 45.0,
        "Latitude(deg)": 26.852064910691656,
        "Longitude(deg)": -0.8697571154299358,
        "Mean Anomaly(deg)": -219.5608209807658,
        "RAAN(deg)": 309.9911155010056,
        "Satellite Name": "Constellation 1 1372",
        "Satellite Number": 1372,
        "Semi-Major Axis(m)": 7083131.272910544,
        "Time(s)": 157
    },
    {
        "Altitude(m)": 703785.8047711928,
        "Argument of Periapsis(deg)": 0.009471784986774088,
        "Eccentricity": 0.0,
        "Inclination(deg)": 45.0,
        "Latitude(deg)": 26.81477755909772,
        "Longitude(deg)": -0.8200945733145999,
        "Mean Anomaly(deg)": -219.50011984051594,
        "RAAN(deg)": 309.99105891184,
        "Satellite Name": "Constellation 1 1372",
        "Satellite Number": 1372,
        "Semi-Major Axis(m)": 7083131.272910544,
        "Time(s)": 158
    },
    {
        "Altitude(m)": 703780.6052971032,
        "Argument of Periapsis(deg)": 0.009531732993019492,
        "Eccentricity": 0.0,
        "Inclination(deg)": 45.0,
        "Latitude(deg)": 26.77746961019544,
        "Longitude(deg)": -0.7704672014388473,
        "Mean Anomaly(deg)": -219.4394187002661,
        "RAAN(deg)": 309.99100232267443,
        "Satellite Name": "Constellation 1 1372",
        "Satellite Number": 1372,
        "Semi-Major Axis(m)": 7083131.272910544,
        "Time(s)": 159
    },
    {
        "Altitude(m)": 703775.4135814856,
        "Argument of Periapsis(deg)": 0.009591680999264898,
        "Eccentricity": 0.0,
        "Inclination(deg)": 45.0,
        "Latitude(deg)": 26.740141110170953,
        "Longitude(deg)": -0.7208749392923636,
        "Mean Anomaly(deg)": -219.37871756001616,
        "RAAN(deg)": 309.9909457335089,
        "Satellite Name": "Constellation 1 1372",
        "Satellite Number": 1372,
        "Semi-Major Axis(m)": 7083131.272910544,
        "Time(s)": 160
    },
    {
        "Altitude(m)": 703770.2296624783,
        "Argument of Periapsis(deg)": 0.009651629005510304,
        "Eccentricity": 0.0,
        "Inclination(deg)": 45.0,
        "Latitude(deg)": 26.70279210514316,
        "Longitude(deg)": -0.6713177263544667,
        "Mean Anomaly(deg)": -219.31801641976625,
        "RAAN(deg)": 309.9908891443433,
        "Satellite Name": "Constellation 1 1372",
        "Satellite Number": 1372,
        "Semi-Major Axis(m)": 7083131.272910544,
        "Time(s)": 161
    },
    {
        "Altitude(m)": 703765.0535781905,
        "Argument of Periapsis(deg)": 0.00971157701175571,
        "Eccentricity": 0.0,
        "Inclination(deg)": 45.0,
        "Latitude(deg)": 26.66542264116362,
        "Longitude(deg)": -0.6217955020937749,
        "Mean Anomaly(deg)": -219.25731527951635,
        "RAAN(deg)": 309.99083255517775,
        "Satellite Name": "Constellation 1 1372",
        "Satellite Number": 1372,
        "Semi-Major Axis(m)": 7083131.272910544,
        "Time(s)": 162
    },
    {
        "Altitude(m)": 703759.8853667123,
        "Argument of Periapsis(deg)": 0.009771525018001118,
        "Eccentricity": 0.0,
        "Inclination(deg)": 45.0,
        "Latitude(deg)": 26.628032764216343,
        "Longitude(deg)": -0.5723083740660962,
        "Mean Anomaly(deg)": -219.19661413926642,
        "RAAN(deg)": 309.99077596601217,
        "Satellite Name": "Constellation 1 1372",
        "Satellite Number": 1372,
        "Semi-Major Axis(m)": 7083131.272910544,
        "Time(s)": 163
    },
    {
        "Altitude(m)": 703754.7250661115,
        "Argument of Periapsis(deg)": 0.00983147302424652,
        "Eccentricity": 0.0,
        "Inclination(deg)": 45.0,
        "Latitude(deg)": 26.590622520219323,
        "Longitude(deg)": -0.522855945526595,
        "Mean Anomaly(deg)": -219.13591299901654,
        "RAAN(deg)": 309.9907193768466,
        "Satellite Name": "Constellation 1 1372",
        "Satellite Number": 1372,
        "Semi-Major Axis(m)": 7083131.272910544,
        "Time(s)": 164
    },
    {
        "Altitude(m)": 703749.572714436,
        "Argument of Periapsis(deg)": 0.009891421030491928,
        "Eccentricity": 0.0,
        "Inclination(deg)": 45.0,
        "Latitude(deg)": 26.553191955022495,
        "Longitude(deg)": -0.4734383240123655,
        "Mean Anomaly(deg)": -219.07521185876664,
        "RAAN(deg)": 309.99066278768106,
        "Satellite Name": "Constellation 1 1372",
        "Satellite Number": 1372,
        "Semi-Major Axis(m)": 7083131.272910544,
        "Time(s)": 165
    },
    {
        "Altitude(m)": 703744.4283497053,
        "Argument of Periapsis(deg)": 0.009951369036737332,
        "Eccentricity": 0.0,
        "Inclination(deg)": 45.0,
        "Latitude(deg)": 26.515741114409288,
        "Longitude(deg)": -0.42405544895490543,
        "Mean Anomaly(deg)": -219.01451071851676,
        "RAAN(deg)": 309.9906061985155,
        "Satellite Name": "Constellation 1 1372",
        "Satellite Number": 1372,
        "Semi-Major Axis(m)": 7083131.272910544,
        "Time(s)": 166
    },
    {
        "Altitude(m)": 703739.2920099205,
        "Argument of Periapsis(deg)": 0.010011317042982738,
        "Eccentricity": 0.0,
        "Inclination(deg)": 45.0,
        "Latitude(deg)": 26.47827004409626,
        "Longitude(deg)": -0.37470725977703156,
        "Mean Anomaly(deg)": -218.95380957826686,
        "RAAN(deg)": 309.9905496093499,
        "Satellite Name": "Constellation 1 1372",
        "Satellite Number": 1372,
        "Semi-Major Axis(m)": 7083131.272910544,
        "Time(s)": 167
    },
    {
        "Altitude(m)": 703734.1637330545,
        "Argument of Periapsis(deg)": 0.010071265049228144,
        "Eccentricity": 0.0,
        "Inclination(deg)": 45.0,
        "Latitude(deg)": 26.44077878973319,
        "Longitude(deg)": -0.3253936958938399,
        "Mean Anomaly(deg)": -218.89310843801692,
        "RAAN(deg)": 309.9904930201843,
        "Satellite Name": "Constellation 1 1372",
        "Satellite Number": 1372,
        "Semi-Major Axis(m)": 7083131.272910544,
        "Time(s)": 168
    },
    {
        "Altitude(m)": 703729.0435570651,
        "Argument of Periapsis(deg)": 0.01013121305547355,
        "Eccentricity": 0.0,
        "Inclination(deg)": 45.0,
        "Latitude(deg)": 26.403267396903374,
        "Longitude(deg)": -0.2761146967127952,
        "Mean Anomaly(deg)": -218.83240729776702,
        "RAAN(deg)": 309.99043643101874,
        "Satellite Name": "Constellation 1 1372",
        "Satellite Number": 1372,
        "Semi-Major Axis(m)": 7083131.272910544,
        "Time(s)": 169
    },
    {
        "Altitude(m)": 703723.931519877,
        "Argument of Periapsis(deg)": 0.010191161061718957,
        "Eccentricity": 0.0,
        "Inclination(deg)": 45.0,
        "Latitude(deg)": 26.365735911123426,
        "Longitude(deg)": -0.22687020163415,
        "Mean Anomaly(deg)": -218.77170615751714,
        "RAAN(deg)": 309.9903798418532,
        "Satellite Name": "Constellation 1 1372",
        "Satellite Number": 1372,
        "Semi-Major Axis(m)": 7083131.272910544,
        "Time(s)": 170
    }
]